SENTINEL-6              
1 46984U 20086A   24262.68852024 -.00000065  00000+0 -16514-4 0  9991
2 46984  66.0447  17.0669 0007801 270.3568  89.6553 12.80927931178808
